H1 CPF  1  HTS 2022  5  7 12  6271 larets           NONE
H2  0304206 5557    27944 2022 05 07  0  0  0 2022 05 12  0  0  0   180 1 1  0 0 0
H5  0.0560 
H9 
10 0 59710  69480.00000  0    1006667.194     102220.104    6974268.746
10 0 59710  69660.00000  0    1246201.551   -1233386.949    6827466.178
10 0 59710  69840.00000  0    1405821.004   -2529324.757    6430245.606
10 0 59710  70020.00000  0    1481419.182   -3736279.303    5797251.378
10 0 59710  70200.00000  0    1473196.063   -4808143.352    4951738.561
10 0 59710  70380.00000  0    1385543.973   -5703798.869    3924733.976
10 0 59710  70560.00000  0    1226741.051   -6388733.221    2753913.560
10 0 59710  70740.00000  0    1008461.571   -6836412.048    1482216.694
10 0 59710  70920.00000  0     745125.342   -7029343.856     156255.216
10 0 59710  71100.00000  0     453118.346   -6959787.239   -1175429.886
10 0 59710  71280.00000  0     149922.560   -6630048.512   -2464192.052
10 0 59710  71460.00000  0    -146791.037   -6052359.594   -3663085.323
10 0 59710  71640.00000  0    -420061.382   -5248361.252   -4728580.837
10 0 59710  71820.00000  0    -654485.184   -4248219.217   -5622125.391
10 0 59710  72000.00000  0    -836972.258   -3089430.328   -6311484.202
10 0 59710  72180.00000  0    -957375.538   -1815380.076   -6771835.650
10 0 59710  72360.00000  0   -1008973.253    -473713.822   -6986595.045
10 0 59710  72540.00000  0    -988788.106     885417.541   -6947959.527
10 0 59710  72720.00000  0    -897732.349    2211183.676   -6657170.377
10 0 59710  72900.00000  0    -740575.878    3453923.722   -6124494.228
10 0 59710  73080.00000  0    -525736.274    4566975.844   -5368920.732
10 0 59710  73260.00000  0    -264893.680    5508433.464   -4417566.346
10 0 59710  73440.00000  0      27557.145    6242767.374   -3304784.343
10 0 59710  73620.00000  0     335200.745    6742243.696   -2070988.413
10 0 59710  73800.00000  0     640414.094    6988067.646    -761217.836
10 0 59710  73980.00000  0     925262.520    6971186.280     576514.828
10 0 59710  74160.00000  0    1172433.360    6692691.717    1893028.782
10 0 59710  74340.00000  0    1366152.155    6163792.741    3139847.726
10 0 59710  74520.00000  0    1493031.372    5405358.195    4271051.495
10 0 59710  74700.00000  0    1542810.881    4447051.184    5245025.278
10 0 59710  74880.00000  0    1508945.357    3326094.177    6026023.587
10 0 59710  75060.00000  0    1389010.128    2085746.395    6585473.267
10 0 59710  75240.00000  0    1184912.208     773574.029    6902993.701
10 0 59710  75420.00000  0     902897.229    -560418.062    6967101.047
10 0 59710  75600.00000  0     553353.883   -1865711.791    6775591.530
10 0 59710  75780.00000  0     150421.164   -3093202.711    6335601.701
10 0 59710  75960.00000  0    -288587.500   -4197060.701    5663336.917
10 0 59710  76140.00000  0    -743916.787   -5136451.633    4783480.036
10 0 59710  76320.00000  0   -1194234.486   -5877073.953    3728310.858
10 0 59710  76500.00000  0   -1617601.141   -6392457.271    2536534.790
10 0 59710  76680.00000  0   -1992496.865   -6664948.951    1251856.890
10 0 59710  76860.00000  0   -2298857.531   -6686346.266     -78644.143
10 0 59710  77040.00000  0   -2519062.275   -6458137.316   -1406280.232
10 0 59710  77220.00000  0   -2638822.752   -5991341.165   -2682574.293
10 0 59710  77400.00000  0   -2647932.146   -5305959.431   -3861057.979
10 0 59710  77580.00000  0   -2540834.833   -4430070.020   -4898968.232
10 0 59710  77760.00000  0   -2316991.438   -3398621.563   -5758769.239
10 0 59710  77940.00000  0   -1981030.559   -2251999.725   -6409454.198
10 0 59710  78120.00000  0   -1542683.133   -1034429.137   -6827595.923
10 0 59710  78300.00000  0   -1016504.988     207722.423   -6998120.879
10 0 59710  78480.00000  0    -421402.801    1427673.081   -6914802.108
10 0 59710  78660.00000  0     220025.219    2579939.483   -6580474.016
10 0 59710  78840.00000  0     882316.376    3621992.651   -6006967.437
10 0 59710  79020.00000  0    1538123.419    4515815.316   -5214754.900
10 0 59710  79200.00000  0    2159314.925    5229307.427   -4232301.456
10 0 59710  79380.00000  0    2718161.732    5737493.418   -3095123.045
10 0 59710  79560.00000  0    3188561.843    6023472.978   -1844562.530
10 0 59710  79740.00000  0    3547250.332    6079065.618    -526312.206
10 0 59710  79920.00000  0    3774928.033    5905101.936     811272.849
10 0 59710  80100.00000  0    3857244.442    5511333.223    2118997.047
10 0 59710  80280.00000  0    3785581.866    4915960.955    3348697.937
10 0 59710  80460.00000  0    3557593.092    4144804.689    4455089.847
10 0 59710  80640.00000  0    3177463.266    3230150.632    5397483.101
10 0 59710  80820.00000  0    2655876.679    2209349.526    6141307.034
10 0 59710  81000.00000  0    2009704.566    1123237.407    6659366.806
10 0 59710  81180.00000  0    1261432.074      14460.037    6932807.893
10 0 59710  81360.00000  0     438346.291   -1074223.645    6951764.177
10 0 59710  81540.00000  0    -428479.806   -2101602.644    6715686.545
10 0 59710  81720.00000  0   -1305374.958   -3029582.945    6233339.351
10 0 59710  81900.00000  0   -2157380.644   -3824605.164    5522469.625
10 0 59710  82080.00000  0   -2949644.121   -4458869.442    4609173.145
10 0 59710  82260.00000  0   -3648857.900   -4911332.261    3526958.902
10 0 59710  82440.00000  0   -4224673.280   -5168426.469    2315524.464
10 0 59710  82620.00000  0   -4651019.843   -5224473.934    1019291.161
10 0 59710  82800.00000  0   -4907275.426   -5081771.246    -314249.516
10 0 59710  82980.00000  0   -4979225.400   -4750341.404   -1636313.079
10 0 59710  83160.00000  0   -4859759.156   -4247363.464   -2898647.858
10 0 59710  83340.00000  0   -4549265.774   -3596309.870   -4055321.636
10 0 59710  83520.00000  0   -4055718.298   -2825848.535   -5064388.338
10 0 59710  83700.00000  0   -3394452.399   -1968570.970   -5889375.724
10 0 59710  83880.00000  0   -2587657.070   -1059609.727   -6500545.552
10 0 59710  84060.00000  0   -1663605.722    -135207.632   -6875895.825
10 0 59710  84240.00000  0    -655660.320     768702.032   -7001883.645
10 0 59710  84420.00000  0     398909.143    1617854.245   -6873868.750
10 0 59710  84600.00000  0    1460260.524    2380915.694   -6496281.749
10 0 59710  84780.00000  0    2487444.345    3030622.109   -5882510.810
10 0 59710  84960.00000  0    3439955.325    3544755.044   -5054491.919
10 0 59710  85140.00000  0    4279319.841    3906924.587   -4042008.208
99
